MALLIGYONG-1            
1 58400U 23179A   24094.82893219  .00005535  00000+0  24712-3 0  9996
2 58400  97.4141 342.7906 0010356 153.8321 206.3440 15.21725119 20414
